OBJECT_NAME,OBJECT_ID,EPOCH,MEAN_MOTION,ECCENTRICITY,INCLINATION,RA_OF_ASC_NODE,ARG_OF_PERICENTER,MEAN_ANOMALY,EPHEMERIS_TYPE,CLASSIFICATION_TYPE,NORAD_CAT_ID,ELEMENT_SET_NO,REV_AT_EPOCH,BSTAR,MEAN_MOTION_DOT,MEAN_MOTION_DDOT
TJS-25,2026-129A,2026-07-09T17:38:46.471776,1.00265980,.00031589,5.9598,330.3086,281.7770,60.4398,0,U,69474,999,28,0,-.355E-5,0
STARLINK-37816,2026-131A,2026-07-10T06:00:02.000160,15.59214662,.00015134,97.2848,212.8002,103.9657,209.7962,0,U,69478,999,571,-.35654735E-1,-.2439377E-1,0
STARLINK-37878,2026-131B,2026-07-10T06:00:02.000160,15.67755332,.00013196,97.2847,212.8169,79.4103,281.7665,0,U,69479,999,457,-.27682919E-1,-.2625308E-1,0
STARLINK-37817,2026-131C,2026-07-10T06:00:02.000160,15.67077915,.00012274,97.2843,212.8373,60.6345,348.3292,0,U,69480,999,571,-.26339536E-1,-.2454375E-1,0
STARLINK-37727,2026-131D,2026-07-10T06:00:02.000160,15.58650237,.00016296,97.2843,212.8026,111.4624,210.1794,0,U,69481,999,571,-.3695961E-1,-.247035E-1,0
STARLINK-37814,2026-131E,2026-07-10T06:00:02.000160,15.66650449,.00013564,97.2841,212.8364,65.0158,341.6430,0,U,69482,999,571,-.28556919E-1,-.2593748E-1,0
STARLINK-37869,2026-131F,2026-07-10T06:00:02.000160,15.64127752,.00012067,97.2841,212.8239,50.6729,324.6956,0,U,69483,999,571,-.21265558E-1,-.1794991E-1,0
STARLINK-37873,2026-131G,2026-07-10T06:00:02.000160,15.64148432,.00015484,97.2845,212.8310,59.3643,334.9756,0,U,69484,999,571,-.31663514E-1,-.2600018E-1,0
STARLINK-37892,2026-131H,2026-07-10T06:00:02.000160,15.65293967,.00015569,97.2846,212.8436,49.2347,15.2066,0,U,69485,999,571,-.30320682E-1,-.2605531E-1,0
STARLINK-37893,2026-131J,2026-07-10T06:00:02.000160,15.64137419,.0001053,97.2848,212.8433,90.5677,324.4193,0,U,69486,999,579,-.1565512E-1,-.1319148E-1,0
STARLINK-37842,2026-131K,2026-07-10T06:00:02.000160,15.63390600,.00009436,97.2846,212.8279,98.0766,282.9560,0,U,69487,999,571,-.94219949E-2,-.787041E-2,0
STARLINK-37449,2026-131L,2026-07-10T06:00:02.000160,15.65500729,.00014056,97.2846,212.8498,67.3774,10.5874,0,U,69488,999,580,-.30438512E-1,-.2632895E-1,0
STARLINK-37831,2026-131M,2026-07-10T06:00:02.000160,15.59852077,.00015182,97.2848,212.8147,106.3572,239.4758,0,U,69489,999,435,-.35918348E-1,-.2507687E-1,0
STARLINK-37879,2026-131N,2026-07-10T06:00:02.000160,15.62974542,.00013263,97.2851,212.8388,71.8770,330.5342,0,U,69490,999,571,-.31162705E-1,-.2462818E-1,0
STARLINK-37856,2026-131P,2026-07-10T06:00:02.000160,15.63294829,.00010477,97.2850,212.8282,88.6472,289.4909,0,U,69491,999,577,-.3103894E-1,-.248116E-1,0
STARLINK-37568,2026-131Q,2026-07-10T06:00:02.000160,15.60164896,.00011571,97.2848,212.8331,76.0037,312.8078,0,U,69492,999,580,-.34952309E-1,-.2474366E-1,0
STARLINK-37855,2026-131R,2026-07-10T06:00:02.000160,15.71932369,.00018016,97.2847,212.8632,64.2370,44.9493,0,U,69493,999,577,-.24897332E-1,-.2785212E-1,0
STARLINK-37854,2026-131S,2026-07-10T06:00:02.000160,15.66893384,.00014166,97.2848,212.8439,68.4873,356.0509,0,U,69494,999,577,-.28153312E-1,-.2584057E-1,0
STARLINK-37789,2026-131T,2026-07-10T06:00:02.000160,15.62252766,.00012403,97.2846,212.8491,75.2201,353.3509,0,U,69495,999,579,-.316996E-1,-.2438715E-1,0
STARLINK-37839,2026-131U,2026-07-10T06:00:02.000160,15.63821838,.00011756,97.2849,212.8417,79.6210,329.3704,0,U,69496,999,577,-.30773641E-1,-.2507886E-1,0
STARLINK-37798,2026-131V,2026-07-10T06:00:02.000160,15.62360608,.00011755,97.2852,212.8525,65.5870,9.7791,0,U,69497,999,577,-.31911509E-1,-.2461914E-1,0
STARLINK-37853,2026-131W,2026-07-10T06:00:02.000160,15.75246290,.00007878,97.2842,212.8941,100.6655,80.2370,0,U,69498,999,577,-.1299619E-2,-.190178E-2,0
STARLINK-37849,2026-131X,2026-07-10T06:00:02.000160,15.58879063,.0001124,97.2854,212.8406,76.9217,331.7556,0,U,69499,999,579,-.37572931E-1,-.2524369E-1,0
STARLINK-37835,2026-131Y,2026-07-10T06:00:02.000160,15.59779033,.00011724,97.2847,212.8409,78.6593,330.2394,0,U,69500,999,468,-.35383719E-1,-.2468892E-1,0
STARLINK-37843,2026-131Z,2026-07-10T06:00:02.000160,15.58507164,.00010825,97.2851,212.8355,84.8858,310.0351,0,U,69501,999,577,-.37255715E-1,-.2475304E-1,0
STARS-X,2026-132A,2026-07-10T02:48:32.611968,14.99099887,.0014079,97.6883,254.4879,183.0330,177.0810,0,U,69502,999,421,.10714634E-3,.1244E-4,0
PETREL,2026-132B,2026-07-10T02:46:13.897632,14.99178334,.00139665,97.6912,254.5008,184.9538,175.1549,0,U,69503,999,421,.87659435E-4,.1009E-4,0
BRO-22,2026-132C,2026-07-09T13:40:53.743872,14.99796310,.00159513,97.6833,253.9635,201.2436,158.8127,0,U,69504,999,413,.66480091E-4,.764E-5,0
HORN-L,2026-132D,2026-07-10T03:14:44.084544,15.11027619,.0025715,97.6864,254.7457,225.9343,133.9769,0,U,69505,999,423,.17837278E-3,.2936E-4,0
VERTECS,2026-132E,2026-07-10T03:34:38.902368,15.00980943,.00152043,97.6831,254.5950,223.5994,136.4029,0,U,69506,999,421,.10513758E-3,.1284E-4,0
