TJS-25                  
1 69474U 26129A   26190.73526009 -.00000355  00000+0  00000+0 0  9992
2 69474   5.9598 330.3086 0003158 281.7770  60.4398  1.00265980   281
STARLINK-37816          
1 69478U 26131A   26191.25002315 -.02439377  00000+0 -35655-1 0  9995
2 69478  97.2848 212.8002 0001513 103.9657 209.7962 15.59214662  5719
STARLINK-37878          
1 69479U 26131B   26191.25002315 -.02625308  00000+0 -27683-1 0  9999
2 69479  97.2847 212.8169 0001319  79.4103 281.7665 15.67755332  4576
STARLINK-37817          
1 69480U 26131C   26191.25002315 -.02454375  00000+0 -26340-1 0  9994
2 69480  97.2843 212.8373 0001227  60.6345 348.3292 15.67077915  5716
STARLINK-37727          
1 69481U 26131D   26191.25002315 -.02470350  00000+0 -36960-1 0  9995
2 69481  97.2843 212.8026 0001629 111.4624 210.1794 15.58650237  5710
STARLINK-37814          
1 69482U 26131E   26191.25002315 -.02593748  00000+0 -28557-1 0  9996
2 69482  97.2841 212.8364 0001356  65.0158 341.6430 15.66650449  5718
STARLINK-37869          
1 69483U 26131F   26191.25002315 -.01794991  00000+0 -21266-1 0  9999
2 69483  97.2841 212.8239 0001206  50.6729 324.6956 15.64127752  5716
STARLINK-37873          
1 69484U 26131G   26191.25002315 -.02600018  00000+0 -31664-1 0  9990
2 69484  97.2845 212.8310 0001548  59.3643 334.9756 15.64148432  5711
STARLINK-37892          
1 69485U 26131H   26191.25002315 -.02605531  00000+0 -30321-1 0  9995
2 69485  97.2846 212.8436 0001556  49.2347  15.2066 15.65293967  5718
STARLINK-37893          
1 69486U 26131J   26191.25002315 -.01319148  00000+0 -15655-1 0  9994
2 69486  97.2848 212.8433 0001053  90.5677 324.4193 15.64137419  5797
STARLINK-37842          
1 69487U 26131K   26191.25002315 -.00787041  00000+0 -94220-2 0  9991
2 69487  97.2846 212.8279 0000943  98.0766 282.9560 15.63390600  5713
STARLINK-37449          
1 69488U 26131L   26191.25002315 -.02632895  00000+0 -30439-1 0  9991
2 69488  97.2846 212.8498 0001405  67.3774  10.5874 15.65500729  5809
STARLINK-37831          
1 69489U 26131M   26191.25002315 -.02507687  00000+0 -35918-1 0  9999
2 69489  97.2848 212.8147 0001518 106.3572 239.4758 15.59852077  4359
STARLINK-37879          
1 69490U 26131N   26191.25002315 -.02462818  00000+0 -31163-1 0  9995
2 69490  97.2851 212.8388 0001326  71.8770 330.5342 15.62974542  5714
STARLINK-37856          
1 69491U 26131P   26191.25002315 -.02481160  00000+0 -31039-1 0  9999
2 69491  97.2850 212.8282 0001047  88.6472 289.4909 15.63294829  5773
STARLINK-37568          
1 69492U 26131Q   26191.25002315 -.02474366  00000+0 -34952-1 0  9997
2 69492  97.2848 212.8331 0001157  76.0037 312.8078 15.60164896  5805
STARLINK-37855          
1 69493U 26131R   26191.25002315 -.02785212  00000+0 -24897-1 0  9990
2 69493  97.2847 212.8632 0001801  64.2370  44.9493 15.71932369  5774
STARLINK-37854          
1 69494U 26131S   26191.25002315 -.02584057  00000+0 -28153-1 0  9994
2 69494  97.2848 212.8439 0001416  68.4873 356.0509 15.66893384  5779
STARLINK-37789          
1 69495U 26131T   26191.25002315 -.02438715  00000+0 -31700-1 0  9996
2 69495  97.2846 212.8491 0001240  75.2201 353.3509 15.62252766  5793
STARLINK-37839          
1 69496U 26131U   26191.25002315 -.02507886  00000+0 -30774-1 0  9993
2 69496  97.2849 212.8417 0001175  79.6210 329.3704 15.63821838  5771
STARLINK-37798          
1 69497U 26131V   26191.25002315 -.02461914  00000+0 -31912-1 0  9990
2 69497  97.2852 212.8525 0001175  65.5870   9.7791 15.62360608  5779
STARLINK-37853          
1 69498U 26131W   26191.25002315 -.00190178  00000+0 -12996-2 0  9992
2 69498  97.2842 212.8941 0000787 100.6655  80.2370 15.75246290  5772
STARLINK-37849          
1 69499U 26131X   26191.25002315 -.02524369  00000+0 -37573-1 0  9995
2 69499  97.2854 212.8406 0001124  76.9217 331.7556 15.58879063  5790
STARLINK-37835          
1 69500U 26131Y   26191.25002315 -.02468892  00000+0 -35384-1 0  9994
2 69500  97.2847 212.8409 0001172  78.6593 330.2394 15.59779033  4685
STARLINK-37843          
1 69501U 26131Z   26191.25002315 -.02475304  00000+0 -37256-1 0  9991
2 69501  97.2851 212.8355 0001082  84.8858 310.0351 15.58507164  5777
STARS-X                 
1 69502U 26132A   26191.11704412  .00001244  00000+0  10715-3 0  9992
2 69502  97.6883 254.4879 0014079 183.0330 177.0810 14.99099887  4218
PETREL                  
1 69503U 26132B   26191.11543863  .00001009  00000+0  87659-4 0  9995
2 69503  97.6912 254.5008 0013966 184.9538 175.1549 14.99178334  4214
BRO-22                  
1 69504U 26132C   26190.57006648  .00000764  00000+0  66480-4 0  9996
2 69504  97.6833 253.9635 0015951 201.2436 158.8127 14.99796310  4133
HORN-L                  
1 69505U 26132D   26191.13523246  .00002936  00000+0  17837-3 0  9992
2 69505  97.6864 254.7457 0025715 225.9343 133.9769 15.11027619  4239
VERTECS                 
1 69506U 26132E   26191.14906137  .00001284  00000+0  10514-3 0  9998
2 69506  97.6831 254.5950 0015204 223.5994 136.4029 15.00980943  4219
